STARLINK-3086           
1 49178U 21082BA  26170.36018744 -.00000026  00000+0  56115-5 0  9992
2 49178  69.9998  38.0977 0002726 268.1073  91.9774 14.98329291262363
STARLINK-3043           
1 49179U 21082BB  26170.58922508  .00000820  00000+0  76584-4 0  9991
2 49179  70.0023 357.5237 0002638 280.8564  79.2298 14.98302244262226
STARLINK-3059           
1 49181U 21082BD  26170.34349619 -.00000162  00000+0 -58215-5 0  9997
2 49181  70.0000  38.1531 0002738 271.1508  88.9337 14.98331096262391
ONEWEB-0292             
1 49186U 21083A   26170.37471133 -.00000163  00000+0 -48010-3 0  9994
2 49186  87.8953 319.8024 0001943  91.8556 268.2796 13.13472230231213
ONEWEB-0303             
1 49187U 21083B   26170.50424262  .00000022  00000+0  22709-4 0  9991
2 49187  87.9170 334.9950 0001955  89.3975 270.7381 13.18686972230281
ONEWEB-0306             
1 49188U 21083C   26170.49412113  .00000043  00000+0  76340-4 0  9995
2 49188  87.9173 334.9851 0001779 100.4348 259.6985 13.18686853230327
ONEWEB-0307             
1 49189U 21083D   26170.36878206 -.00000225  00000+0 -65236-3 0  9996
2 49189  87.8958 319.8004 0001938  95.4736 264.6614 13.13470546231210
ONEWEB-0320             
1 49190U 21083E   26170.36260034 -.00000015  00000+0 -70516-4 0  9997
2 49190  87.9162 335.0289 0001820  93.6425 266.4915 13.18686044230265
ONEWEB-0321             
1 49191U 21083F   26170.54950716  .00000036  00000+0  57529-4 0  9991
2 49191  87.9195 273.9639 0001873 108.2745 251.8592 13.20772061237148
ONEWEB-0322             
1 49192U 21083G   26170.36453321 -.00000256  00000+0 -73671-3 0  9993
2 49192  87.8955 319.8019 0001442 104.6253 255.5036 13.13468420231208
ONEWEB-0324             
1 49193U 21083H   26170.48737789  .00000056  00000+0  10972-3 0  9991
2 49193  87.9174 334.9917 0002006  97.6897 262.4463 13.18685483230306
ONEWEB-0325             
1 49194U 21083J   26170.49075303  .00000070  00000+0  14405-3 0  9991
2 49194  87.9163 334.9994 0001811  91.6671 268.4669 13.18686054230317
ONEWEB-0326             
1 49195U 21083K   26170.50606970  .00000037  00000+0  61137-4 0  9992
2 49195  87.9172 334.9940 0001953  85.0106 275.1250 13.18685014230301
ONEWEB-0327             
1 49196U 21083L   26170.50578938  .00000042  00000+0  75009-4 0  9994
2 49196  87.9164 334.9981 0001881  79.9433 280.1911 13.18684897230323
ONEWEB-0328             
1 49197U 21083M   26170.35439242 -.00000128  00000+0 -38467-3 0  9995
2 49197  87.8964 319.7769 0001959  98.9845 261.1506 13.13469535231189
ONEWEB-0331             
1 49198U 21083N   26170.49917729  .00000032  00000+0  48272-4 0  9990
2 49198  87.9172 334.9894 0002068  85.8228 274.3141 13.18686499230312
ONEWEB-0333             
1 49199U 21083P   26170.34931357 -.00000017  00000+0 -81708-4 0  9994
2 49199  87.8955 319.8043 0001799  95.7508 264.3827 13.13469280231199
ONEWEB-0334             
1 49200U 21083Q   26170.56460121  .00000108  00000+0  23121-3 0  9990
2 49200  87.9195 273.9715 0001533 129.8544 230.2724 13.21260969237107
ONEWEB-0335             
1 49201U 21083R   26170.34423595  .00000170  00000+0  43098-3 0  9995
2 49201  87.8955 319.8026 0001952  93.0521 267.0831 13.13470506231201
ONEWEB-0336             
1 49202U 21083S   26170.31545558  .00000222  00000+0  57407-3 0  9994
2 49202  87.8953 319.8037 0002223  91.9876 268.1508 13.13470882231192
ONEWEB-0337             
1 49203U 21083T   26170.47783711  .00000369  00000+0  97504-3 0  9991
2 49203  87.8953 319.7774 0002050  98.1684 261.9678 13.13470513231217
ONEWEB-0338             
1 49204U 21083U   26170.54107551  .00000145  00000+0  32577-3 0  9993
2 49204  87.9188 273.9795 0001727 105.1823 254.9502 13.20774717237122
ONEWEB-0339             
1 49205U 21083V   26170.48643213  .00000388  00000+0  10266-2 0  9996
2 49205  87.8954 319.7681 0001705 105.5158 254.6159 13.13470779231196
ONEWEB-0340             
1 49206U 21083W   26170.48569996  .00000009  00000+0 -92780-5 0  9997
2 49206  87.9172 334.9978 0001978  91.2473 268.8885 13.18686215230271
ONEWEB-0341             
1 49207U 21083X   26170.49244558  .00000018  00000+0  11643-4 0  9990
2 49207  87.9168 334.9995 0002292 101.4015 258.7375 13.18685961230293
ONEWEB-0342             
1 49208U 21083Y   26170.54782179  .00000178  00000+0  40662-3 0  9992
2 49208  87.9195 273.9663 0001952 103.4815 256.6536 13.20771436237097
ONEWEB-0343             
1 49209U 21083Z   26170.50087798  .00000081  00000+0  17322-3 0  9994
2 49209  87.9167 334.9966 0001672 106.3561 253.7755 13.18686371230342
ONEWEB-0344             
1 49210U 21083AA  26170.32898586  .00000381  00000+0  10094-2 0  9992
2 49210  87.8945 319.8137 0002174 102.2754 257.8619 13.13472332231177
ONEWEB-0345             
1 49211U 21083AB  26170.32052738  .00000285  00000+0  74517-3 0  9998
2 49211  87.8965 319.7967 0002059 101.9421 258.1939 13.13471147231182
ONEWEB-0346             
1 49212U 21083AC  26170.49750449  .00000052  00000+0  99606-4 0  9990
2 49212  87.9163 334.9974 0002263  79.1976 280.9411 13.18685821230288
