OBJECT_NAME,OBJECT_ID,EPOCH,MEAN_MOTION,ECCENTRICITY,INCLINATION,RA_OF_ASC_NODE,ARG_OF_PERICENTER,MEAN_ANOMALY,EPHEMERIS_TYPE,CLASSIFICATION_TYPE,NORAD_CAT_ID,ELEMENT_SET_NO,REV_AT_EPOCH,BSTAR,MEAN_MOTION_DOT,MEAN_MOTION_DDOT
STARLINK-3086,2021-082BA,2026-06-19T08:38:40.194816,14.98329291,.00027266,69.9998,38.0977,268.1073,91.9774,0,U,49178,999,26236,.561149E-5,-.26E-6,0
STARLINK-3043,2021-082BB,2026-06-19T14:08:29.046912,14.98302244,.00026381,70.0023,357.5237,280.8564,79.2298,0,U,49179,999,26222,.7658355E-4,.82E-5,0
STARLINK-3059,2021-082BD,2026-06-19T08:14:38.070816,14.98331096,.00027384,70.0000,38.1531,271.1508,88.9337,0,U,49181,999,26239,-.5821472E-5,-.162E-5,0
ONEWEB-0292,2021-083A,2026-06-19T08:59:35.058912,13.13472230,.00019438,87.8953,319.8024,91.8556,268.2796,0,U,49186,999,23121,-.48009997E-3,-.163E-5,0
ONEWEB-0303,2021-083B,2026-06-19T12:06:06.562368,13.18686972,.00019556,87.9170,334.9950,89.3975,270.7381,0,U,49187,999,23028,.22708922E-4,.22E-6,0
ONEWEB-0306,2021-083C,2026-06-19T11:51:32.065632,13.18686853,.00017799,87.9173,334.9851,100.4348,259.6985,0,U,49188,999,23032,.76340198E-4,.43E-6,0
ONEWEB-0307,2021-083D,2026-06-19T08:51:02.769984,13.13470546,.00019382,87.8958,319.8004,95.4736,264.6614,0,U,49189,999,23121,-.6523645E-3,-.225E-5,0
ONEWEB-0320,2021-083E,2026-06-19T08:42:08.669376,13.18686044,.000182,87.9162,335.0289,93.6425,266.4915,0,U,49190,999,23026,-.70515538E-4,-.15E-6,0
ONEWEB-0321,2021-083F,2026-06-19T13:11:17.418624,13.20772061,.00018738,87.9195,273.9639,108.2745,251.8592,0,U,49191,999,23714,.57529113E-4,.36E-6,0
ONEWEB-0322,2021-083G,2026-06-19T08:44:55.669344,13.13468420,.00014426,87.8955,319.8019,104.6253,255.5036,0,U,49192,999,23120,-.73671473E-3,-.256E-5,0
ONEWEB-0324,2021-083H,2026-06-19T11:41:49.449696,13.18685483,.00020064,87.9174,334.9917,97.6897,262.4463,0,U,49193,999,23030,.10972167E-3,.56E-6,0
ONEWEB-0325,2021-083J,2026-06-19T11:46:41.061792,13.18686054,.00018116,87.9163,334.9994,91.6671,268.4669,0,U,49194,999,23031,.1440458E-3,.7E-6,0
ONEWEB-0326,2021-083K,2026-06-19T12:08:44.422080,13.18685014,.0001953,87.9172,334.9940,85.0106,275.1250,0,U,49195,999,23030,.61137331E-4,.37E-6,0
ONEWEB-0327,2021-083L,2026-06-19T12:08:20.202432,13.18684897,.00018812,87.9164,334.9981,79.9433,280.1911,0,U,49196,999,23032,.7500907E-4,.42E-6,0
ONEWEB-0328,2021-083M,2026-06-19T08:30:19.505088,13.13469535,.00019595,87.8964,319.7769,98.9845,261.1506,0,U,49197,999,23118,-.38467238E-3,-.128E-5,0
ONEWEB-0331,2021-083N,2026-06-19T11:58:48.917856,13.18686499,.00020689,87.9172,334.9894,85.8228,274.3141,0,U,49198,999,23031,.48271683E-4,.32E-6,0
ONEWEB-0333,2021-083P,2026-06-19T08:23:00.692448,13.13469280,.00017997,87.8955,319.8043,95.7508,264.3827,0,U,49199,999,23119,-.81708173E-4,-.17E-6,0
ONEWEB-0334,2021-083Q,2026-06-19T13:33:01.544544,13.21260969,.00015332,87.9195,273.9715,129.8544,230.2724,0,U,49200,999,23710,.2312061E-3,.108E-5,0
ONEWEB-0335,2021-083R,2026-06-19T08:15:41.986080,13.13470506,.00019526,87.8955,319.8026,93.0521,267.0831,0,U,49201,999,23120,.43098263E-3,.17E-5,0
ONEWEB-0336,2021-083S,2026-06-19T07:34:15.362112,13.13470882,.00022231,87.8953,319.8037,91.9876,268.1508,0,U,49202,999,23119,.57406828E-3,.222E-5,0
ONEWEB-0337,2021-083T,2026-06-19T11:28:05.126304,13.13470513,.00020505,87.8953,319.7774,98.1684,261.9678,0,U,49203,999,23121,.97503743E-3,.369E-5,0
ONEWEB-0338,2021-083U,2026-06-19T12:59:08.924064,13.20774717,.0001727,87.9188,273.9795,105.1823,254.9502,0,U,49204,999,23712,.32576517E-3,.145E-5,0
ONEWEB-0339,2021-083V,2026-06-19T11:40:27.736032,13.13470779,.00017058,87.8954,319.7681,105.5158,254.6159,0,U,49205,999,23119,.10266419E-2,.388E-5,0
ONEWEB-0340,2021-083W,2026-06-19T11:39:24.476544,13.18686215,.0001978,87.9172,334.9978,91.2473,268.8885,0,U,49206,999,23027,-.9278005E-5,.9E-7,0
ONEWEB-0341,2021-083X,2026-06-19T11:49:07.298112,13.18685961,.00022927,87.9168,334.9995,101.4015,258.7375,0,U,49207,999,23029,.11642867E-4,.18E-6,0
ONEWEB-0342,2021-083Y,2026-06-19T13:08:51.802656,13.20771436,.00019521,87.9195,273.9663,103.4815,256.6536,0,U,49208,999,23709,.40661787E-3,.178E-5,0
ONEWEB-0343,2021-083Z,2026-06-19T12:01:15.857472,13.18686371,.00016727,87.9167,334.9966,106.3561,253.7755,0,U,49209,999,23034,.17321685E-3,.81E-6,0
ONEWEB-0344,2021-083AA,2026-06-19T07:53:44.378304,13.13472332,.0002174,87.8945,319.8137,102.2754,257.8619,0,U,49210,999,23117,.10093998E-2,.381E-5,0
ONEWEB-0345,2021-083AB,2026-06-19T07:41:33.565632,13.13471147,.00020594,87.8965,319.7967,101.9421,258.1939,0,U,49211,999,23118,.74517129E-3,.285E-5,0
ONEWEB-0346,2021-083AC,2026-06-19T11:56:24.387936,13.18685821,.00022631,87.9163,334.9974,79.1976,280.9411,0,U,49212,999,23028,.99605522E-4,.52E-6,0
